NORAD_CAT_ID,OBJECT_NAME,OBJECT_TYPE,EPOCH,MEAN_MOTION,ECCENTRICITY,INCLINATION,RA_OF_ASC_NODE,ARG_OF_PERICENTER,MEAN_ANOMALY,BSTAR,MEAN_MOTION_DOT,MEAN_MOTION_DDOT,TLE_LINE0,TLE_LINE1,TLE_LINE2,SEMIMAJOR_AXIS,PERIOD,APOGEE,PERIGEE,DECAYED
49768.0,STARLINK-3196,PAYLOAD,2022-07-11 00:13:24,15.08838382,0.000153,53.2182,24.2097,53.895,306.2183,0.0012031,0.0001891,0.0,0 STARLINK-3196,1 49768U 21115AW  22192.00931436  .00018910  00000-0  12031-2 0  9994,2 49768  53.2182  24.2097 0001530  53.8950 306.2183 15.08838382 34848,6917.885,95.438,540.809,538.692,0.0
49768.0,STARLINK-3196,PAYLOAD,2022-07-11 12:56:29,15.08850261,0.0001558,53.2182,21.8309,53.35,306.7636,0.00092701,0.000145,0.0,0 STARLINK-3196,1 49768U 21115AW  22192.53923340  .00014500  00000-0  92701-3 0  9991,2 49768  53.2182  21.8309 0001558  53.3500 306.7636 15.08850261 33817,6917.849,95.437,540.7919999999998,538.636,0.0
49768.0,STARLINK-3196,PAYLOAD,2022-07-11 19:18:02,15.08861017,0.0001561999999999,53.2184,20.6409,54.6093,305.5045,0.0010756,0.00016881,0.0,0 STARLINK-3196,1 49768U 21115AW  22192.80419038  .00016881  00000-0  10756-2 0  9998,2 49768  53.2184  20.6409 0001562  54.6093 305.5045 15.08861017 33859,6917.816,95.436,540.762,538.601,0.0
49768.0,STARLINK-3196,PAYLOAD,2022-07-11 22:28:48,15.08864775,0.000155,53.2184,20.0465,53.9858,306.1278,0.0010849,0.00017032,0.0,0 STARLINK-3196,1 49768U 21115AW  22192.93666861  .00017032  00000-0  10849-2 0  9992,2 49768  53.2184  20.0465 0001550  53.9858 306.1278 15.08864775 34987,6917.805,95.436,540.742,538.597,0.0
49768.0,STARLINK-3196,PAYLOAD,2022-07-12 12:47:16,15.08864902,0.0001526,53.2185,17.3699,59.7037,300.4106,0.00081925,0.00012783,0.0,0 STARLINK-3196,1 49768U 21115AW  22193.53282477  .00012783  00000-0  81925-3 0  9998,2 49768  53.2185  17.3699 0001526  59.7037 300.4106 15.08864902 35072,6917.804,95.436,540.725,538.614,0.0
49768.0,STARLINK-3196,PAYLOAD,2022-07-12 17:33:25,15.08859829,0.0001533,53.2187,16.4782,61.3419,298.7727,0.0005035,7.739e-05,0.0,0 STARLINK-3196,1 49768U 21115AW  22193.73154304  .00007739  00000-0  50350-3 0  9990,2 49768  53.2187  16.4782 0001533  61.3419 298.7727 15.08859829 33997,6917.82,95.436,540.745,538.624,0.0
49768.0,STARLINK-3196,PAYLOAD,2022-07-13 04:41:07,15.08847802,0.0001651,53.2187,14.3965,56.1769,303.9381,3.1951999999999995e-05,2.21e-06,0.0,0 STARLINK-3196,1 49768U 21115AW  22194.19522283  .00000221  00000-0  31952-4 0  9993,2 49768  53.2187  14.3965 0001651  56.1769 303.9381 15.08847802 35173,6917.857,95.437,540.864,538.5790000000002,0.0
49768.0,STARLINK-3196,PAYLOAD,2022-07-13 18:59:35,15.08842733,0.0001742,53.2189,11.7203,59.6233,300.4931,-1.4608e-05,-5.21e-06,0.0,0 STARLINK-3196,1 49768U 21115AW  22194.79138329 -.00000521  00000-0 -14608-4 0  9997,2 49768  53.2189  11.7203 0001742  59.6233 300.4931 15.08842733 34154,6917.871999999999,95.437,540.942,538.5319999999998,0.0
49768.0,STARLINK-3196,PAYLOAD,2022-07-14 04:31:54,15.08831233,0.0001686999999999,53.2191,9.936,58.9063,301.2094,-0.00020055,-3.478e-05,0.0,0 STARLINK-3196,1 49768U 21115AW  22195.18883032 -.00003478  00000-0 -20055-3 0  9995,2 49768  53.2191   9.9360 0001687  58.9063 301.2094 15.08831233 35323,6917.906999999997,95.438,540.939,538.605,0.0
49768.0,STARLINK-3196,PAYLOAD,2022-07-14 12:28:50,15.08829719,0.0001618,53.2189,8.4491,58.9422,301.1729,-0.00014264,-2.557e-05,0.0,0 STARLINK-3196,1 49768U 21115AW  22195.52003279 -.00002557  00000-0 -14264-3 0  9992,2 49768  53.2189   8.4491 0001618  58.9422 301.1729 15.08829719 34264,6917.9119999999975,95.438,540.896,538.6569999999998,0.0
49768.0,STARLINK-3196,PAYLOAD,2022-07-14 18:50:23,15.08835156,0.0001633,53.2199,7.2598,66.1254,293.9909,-5.2695e-05,-1.126e-05,0.0,0 STARLINK-3196,1 49768U 21115AW  22195.78499667 -.00001126  00000-0 -52695-4 0  9992,2 49768  53.2199   7.2598 0001633  66.1254 293.9909 15.08835156 34306,6917.895,95.438,540.89,538.631,0.0
49768.0,STARLINK-3196,PAYLOAD,2022-07-15 04:22:42,15.08837348,0.0001535,53.2192,5.4759,56.1875,303.9263,4.5789e-05,4.41e-06,0.0,0 STARLINK-3196,1 49768U 21115AW  22196.18243440  .00000441  00000-0  45789-4 0  9996,2 49768  53.2192   5.4759 0001535  56.1875 303.9263 15.08837348 35476,6917.888000000001,95.438,540.815,538.692,0.0
49768.0,STARLINK-3196,PAYLOAD,2022-07-15 20:16:33,15.08851204,0.0001388,53.2189,2.5022,52.9509,307.161,0.00012433,1.692e-05,0.0,0 STARLINK-3196,1 49768U 21115AW  22196.84482729  .00001692  00000-0  12433-3 0  9992,2 49768  53.2189   2.5022 0001388  52.9509 307.1610 15.08851204 35577,6917.846,95.437,540.6709999999998,538.751,0.0
49768.0,STARLINK-3196,PAYLOAD,2022-07-16 04:13:29,15.088432699999998,0.0001498,53.2192,1.0153,51.2832,308.8294,0.00026895,3.995e-05,0.0,0 STARLINK-3196,1 49768U 21115AW  22197.17603243  .00003995  00000-0  26895-3 0  9990,2 49768  53.2192   1.0153 0001498  51.2832 308.8294 15.08843270 35629,6917.87,95.437,540.7719999999998,538.6990000000002,0.0
49768.0,STARLINK-3196,PAYLOAD,2022-07-16 10:35:01,15.08843257,0.0001458,53.2189,359.8261,54.0267,306.086,0.00023189,3.405e-05,0.0,0 STARLINK-3196,1 49768U 21115AW  22197.44099248  .00003405  00000-0  23189-3 0  9993,2 49768  53.2189 359.8261 0001458  54.0267 306.0860 15.08843257 34553,6917.87,95.437,540.744,538.727,0.0
49768.0,STARLINK-3196,PAYLOAD,2022-07-16 18:31:57,15.08846215,0.0001506999999999,53.2187,358.3408,52.3422,307.7707,0.00019814,2.867e-05,0.0,0 STARLINK-3196,1 49768U 21115AW  22197.77219048  .00002867  00000-0  19814-3 0  9992,2 49768  53.2187 358.3408 0001507  52.3422 307.7707 15.08846215 34608,6917.861,95.437,540.769,538.684,0.0
49768.0,STARLINK-3196,PAYLOAD,2022-07-17 04:04:16,15.08843557,0.0001406999999999,53.2181,356.5559,52.5416,307.5704,8.9775e-05,1.141e-05,0.0,0 STARLINK-3196,1 49768U 21115AW  22198.16963018  .00001141  00000-0  89775-4 0  9997,2 49768  53.2181 356.5559 0001407  52.5416 307.5704 15.08843557 35773,6917.87,95.437,540.7080000000002,538.761,0.0
49768.0,STARLINK-3196,PAYLOAD,2022-07-17 19:58:07,15.08842125,0.0001556,53.2192,353.5823,53.8733,306.2403,-1.4232e-05,-5.15e-06,0.0,0 STARLINK-3196,1 49768U 21115AW  22198.83203143 -.00000515  00000-0 -14232-4 0  9999,2 49768  53.2192 353.5823 0001556  53.8733 306.2403 15.08842125 34767,6917.874,95.437,540.815,538.6619999999998,0.0
49768.0,STARLINK-3196,PAYLOAD,2022-07-18 03:55:03,15.08838376,0.0001448,53.2197,352.0949,59.466,300.6475,-6.593199999999999e-05,-1.337e-05,0.0,0 STARLINK-3196,1 49768U 21115AW  22199.16323700 -.00001337  00000-0 -65932-4 0  9994,2 49768  53.2197 352.0949 0001448  59.4660 300.6475 15.08838376 35925,6917.885,95.438,540.752,538.749,0.0
49768.0,STARLINK-3196,PAYLOAD,2022-07-18 13:27:22,15.08833863,0.0001486,53.2195,350.3108,54.5217,305.5914,-1.0043e-05,-4.48e-06,0.0,0 STARLINK-3196,1 49768U 21115AW  22199.56067973 -.00000448  00000-0 -10043-4 0  9990,2 49768  53.2195 350.3108 0001486  54.5217 305.5914 15.08833863 34878,6917.899,95.438,540.7919999999998,538.736,0.0
49768.0,STARLINK-3196,PAYLOAD,2022-07-18 19:48:54,15.08841572,0.0001424,53.2197,349.121,58.5444,301.5687,-2.3198e-05,-6.57e-06,0.0,0 STARLINK-3196,1 49768U 21115AW  22199.82563507 -.00000657  00000-0 -23198-4 0  9990,2 49768  53.2197 349.1210 0001424  58.5444 301.5687 15.08841572 34912,6917.876,95.437,540.726,538.755,0.0
49768.0,STARLINK-3196,PAYLOAD,2022-07-19 11:42:46,15.08840386,0.0001554,53.2198,346.1484,55.0402,305.0736,6.1499e-05,6.91e-06,0.0,0 STARLINK-3196,1 49768U 21115AW  22200.48803527  .00000691  00000-0  61499-4 0  9996,2 49768  53.2198 346.1484 0001554  55.0402 305.0736 15.08840386 36124,6917.879,95.438,540.819,538.669,0.0
49768.0,STARLINK-3196,PAYLOAD,2022-07-19 19:39:41,15.08842937,0.0001587,53.2197,344.6613,54.9971,305.117,0.00014498,2.02e-05,0.0,0 STARLINK-3196,1 49768U 21115AW  22200.81923297  .00002020  00000-0  14498-3 0  9994,2 49768  53.2197 344.6613 0001587  54.9971 305.1170 15.08842937 35064,6917.871,95.437,540.8340000000002,538.639,0.0
49768.0,STARLINK-3196,PAYLOAD,2022-07-20 13:08:56,15.0884715,0.0001612,53.2188,341.3902,53.6209,306.4931,0.00021828,3.188e-05,0.0,0 STARLINK-3196,1 49768U 21115AW  22201.54787221  .00003188  00000-0  21828-3 0  9991,2 49768  53.2188 341.3902 0001612  53.6209 306.4931 15.08847150 35171,6917.859,95.437,540.839,538.6080000000002,0.0
49768.0,STARLINK-3196,PAYLOAD,2022-07-20 19:30:28,15.08852634,0.0001628,53.2189,340.2009,51.7961,308.3178,0.00020495,2.976e-05,0.0,0 STARLINK-3196,1 49768U 21115AW  22201.81282803  .00002976  00000-0  20495-3 0  9990,2 49768  53.2189 340.2009 0001628  51.7961 308.3178 15.08852634 35211,6917.842,95.437,540.8330000000002,538.581,0.0
49768.0,STARLINK-3196,PAYLOAD,2022-07-21 09:48:57,15.08837632,0.0001696999999999,53.2209,337.5287,55.2972,304.818,-4.9877e-05,-1.082e-05,0.0,0 STARLINK-3196,1 49768U 21115AW  22202.40899408 -.00001082  00000-0 -49877-4 0  9996,2 49768  53.2209 337.5287 0001697  55.2972 304.8180 15.08837632 36416,6917.888000000001,95.438,540.927,538.5790000000002,0.0
49768.0,STARLINK-3196,PAYLOAD,2022-07-21 19:21:16,15.0883189,0.0001628,53.2198,335.7414,57.7897,302.3253,-9.4527e-06,-4.38e-06,0.0,0 STARLINK-3196,1 49768U 21115AW  22202.80644183 -.00000438  00000-0 -94527-5 0  9995,2 49768  53.2198 335.7414 0001628  57.7897 302.3253 15.08831890 35369,6917.905,95.438,540.896,538.644,0.0
49768.0,STARLINK-3196,PAYLOAD,2022-07-22 01:42:48,15.08839525,0.0001665999999999,53.22,334.5521,56.0406,304.0745,-9.5836e-06,-4.41e-06,0.0,0 STARLINK-3196,1 49768U 21115AW  22203.07139714 -.00000441  00000-0 -95836-5 0  9992,2 49768  53.2200 334.5521 0001666  56.0406 304.0745 15.08839525 36515,6917.882,95.438,540.899,538.594,0.0
49768.0,STARLINK-3196,PAYLOAD,2022-07-22 11:15:06,15.08849234,0.0001609,53.2198,332.7677,54.7725,305.3417,4.7724e-05,4.72e-06,0.0,0 STARLINK-3196,1 49768U 21115AW  22203.46882829  .00000472  00000-0  47724-4 0  9991,2 49768  53.2198 332.7677 0001609  54.7725 305.3417 15.08849234 36573,6917.852,95.437,540.83,538.604,0.0
